start=new Date('2023-02-19T00:00:00.000Z').valueOf();
sats=[{"EPHEMERIS_TYPE":"0","PERIOD":"95.438","RA_OF_ASC_NODE":"110.1021","TLE_LINE1":"1 52694U 22053AQ  23049.56631275  .00008514  00000-0  55251-3 0  9990","ELEMENT_SET_NO":"999","OBJECT_TYPE":"PAYLOAD","MEAN_MOTION":"15.08830926","PERIAPSIS":"538.797","MEAN_MOTION_DOT":"0.00008514","APOAPSIS":"540.749","REF_FRAME":"TEME","TIME_SYSTEM":"UTC","MEAN_MOTION_DDOT":"0.0000000000000","OBJECT_NAME":"STARLINK-4072","ARG_OF_PERICENTER":"99.5881","FILE":"3807124","INCLINATION":"53.2154","RCS_SIZE":"LARGE","LAUNCH_DATE":"2022-05-18","TLE_LINE2":"2 52694  53.2154 110.1021 0001411  99.5881 260.5271 15.08830926 42800","NORAD_CAT_ID":"52694","OBJECT_ID":"2022-053AQ","SEMIMAJOR_AXIS":"6917.908","SITE":"AFETR","COUNTRY_CODE":"US","CLASSIFICATION_TYPE":"U","REV_AT_EPOCH":"4280","CENTER_NAME":"EARTH","MEAN_ELEMENT_THEORY":"SGP4","DECAY_DATE":null,"ECCENTRICITY":"0.00014110","EPOCH":"2023-02-18T13:35:29.421600","GP_ID":"225924990","BSTAR":"0.00055251000000","MEAN_ANOMALY":"260.5271"},{"RA_OF_ASC_NODE":"115.1513","PERIOD":"95.438","EPHEMERIS_TYPE":"0","OBJECT_TYPE":"PAYLOAD","TLE_LINE1":"1 52695U 22053AR  23049.55761179  .00011534  00000-0  74187-3 0  9992","ELEMENT_SET_NO":"999","MEAN_MOTION_DOT":"0.00011534","PERIAPSIS":"538.912","MEAN_MOTION":"15.08826591","APOAPSIS":"540.661","ARG_OF_PERICENTER":"107.6121","MEAN_MOTION_DDOT":"0.0000000000000","OBJECT_NAME":"STARLINK-4041","TIME_SYSTEM":"UTC","REF_FRAME":"TEME","FILE":"3807124","RCS_SIZE":"LARGE","INCLINATION":"53.2141","OBJECT_ID":"2022-053AR","TLE_LINE2":"2 52695  53.2141 115.1513 0001264 107.6121 252.5010 15.08826591 42740","NORAD_CAT_ID":"52695","LAUNCH_DATE":"2022-05-18","COUNTRY_CODE":"US","SITE":"AFETR","SEMIMAJOR_AXIS":"6917.921","REV_AT_EPOCH":"4274","CENTER_NAME":"EARTH","CLASSIFICATION_TYPE":"U","MEAN_ELEMENT_THEORY":"SGP4","EPOCH":"2023-02-18T13:22:57.658656","ECCENTRICITY":"0.00012640","DECAY_DATE":null,"GP_ID":"225923753","MEAN_ANOMALY":"252.5010","BSTAR":"0.00074187000000"},{"COUNTRY_CODE":"US","SITE":"AFETR","SEMIMAJOR_AXIS":"6917.876","OBJECT_ID":"2022-053AS","TLE_LINE2":"2 52696  53.2138 109.5640 0001353  78.9301 281.1843 15.08841276 42428","NORAD_CAT_ID":"52696","LAUNCH_DATE":"2022-05-18","GP_ID":"225935372","MEAN_ANOMALY":"281.1843","BSTAR":"0.00205470000000","DECAY_DATE":null,"ECCENTRICITY":"0.00013530","EPOCH":"2023-02-18T16:30:22.002624","MEAN_ELEMENT_THEORY":"SGP4","CLASSIFICATION_TYPE":"U","CENTER_NAME":"EARTH","REV_AT_EPOCH":"4242","PERIAPSIS":"538.806","MEAN_MOTION":"15.08841276","MEAN_MOTION_DOT":"0.00032565","ELEMENT_SET_NO":"999","TLE_LINE1":"1 52696U 22053AS  23049.68775466  .00032565  00000-0  20547-2 0  9998","OBJECT_TYPE":"PAYLOAD","RA_OF_ASC_NODE":"109.5640","EPHEMERIS_TYPE":"0","PERIOD":"95.437","RCS_SIZE":"LARGE","INCLINATION":"53.2138","FILE":"3807456","MEAN_MOTION_DDOT":"0.0000000000000","OBJECT_NAME":"STARLINK-4025","ARG_OF_PERICENTER":"78.9301","REF_FRAME":"TEME","TIME_SYSTEM":"UTC","APOAPSIS":"540.677"},{"REV_AT_EPOCH":"4272","CENTER_NAME":"EARTH","CLASSIFICATION_TYPE":"U","MEAN_ELEMENT_THEORY":"SGP4","EPOCH":"2023-02-18T10:22:47.214624","ECCENTRICITY":"0.00011920","DECAY_DATE":null,"GP_ID":"225925247","MEAN_ANOMALY":"256.7089","BSTAR":"0.00178540000000","OBJECT_ID":"2022-053AT","TLE_LINE2":"2 52697  53.2149 115.7043 0001192 103.4036 256.7089 15.08817330 42724","NORAD_CAT_ID":"52697","LAUNCH_DATE":"2022-05-18","COUNTRY_CODE":"US","SITE":"AFETR","SEMIMAJOR_AXIS":"6917.950","APOAPSIS":"540.639","MEAN_MOTION_DDOT":"0.0000000000000","ARG_OF_PERICENTER":"103.4036","OBJECT_NAME":"STARLINK-4018","TIME_SYSTEM":"UTC","REF_FRAME":"TEME","FILE":"3807124","RCS_SIZE":"LARGE","INCLINATION":"53.2149","RA_OF_ASC_NODE":"115.7043","PERIOD":"95.439","EPHEMERIS_TYPE":"0","OBJECT_TYPE":"PAYLOAD","TLE_LINE1":"1 52697U 22053AT  23049.43249091  .00028223  00000-0  17854-2 0  9995","ELEMENT_SET_NO":"999","MEAN_MOTION_DOT":"0.00028223","MEAN_MOTION":"15.08817330","PERIAPSIS":"538.990"},{"OBJECT_ID":"2022-053AU","NORAD_CAT_ID":"52698","TLE_LINE2":"2 52698  53.2163 114.1637 0001689 114.3005 245.8164 15.09031158 42361","LAUNCH_DATE":"2022-05-18","COUNTRY_CODE":"US","SITE":"AFETR","SEMIMAJOR_AXIS":"6917.296","CLASSIFICATION_TYPE":"U","REV_AT_EPOCH":"4236","CENTER_NAME":"EARTH","MEAN_ELEMENT_THEORY":"SGP4","DECAY_DATE":null,"ECCENTRICITY":"0.00016890","EPOCH":"2023-02-18T18:34:12.140832","BSTAR":"-0.01064900000000","GP_ID":"225934956","MEAN_ANOMALY":"245.8164","RA_OF_ASC_NODE":"114.1637","EPHEMERIS_TYPE":"0","PERIOD":"95.425","TLE_LINE1":"1 52698U 22053AU  23049.77375163 -.00166743  00000-0 -10649-1 0  9999","ELEMENT_SET_NO":"999","OBJECT_TYPE":"PAYLOAD","MEAN_MOTION":"15.09031158","PERIAPSIS":"537.993","MEAN_MOTION_DOT":"-0.00166743","APOAPSIS":"540.329","ARG_OF_PERICENTER":"114.3005","MEAN_MOTION_DDOT":"0.0000000000000","OBJECT_NAME":"STARLINK-4030","TIME_SYSTEM":"UTC","REF_FRAME":"TEME","FILE":"3807431","RCS_SIZE":"MEDIUM","INCLINATION":"53.2163"},{"LAUNCH_DATE":"2022-05-18","TLE_LINE2":"2 52699  53.2174 105.1676 0001344 110.5163 249.5974 15.08835803 42894","NORAD_CAT_ID":"52699","OBJECT_ID":"2022-053AV","SEMIMAJOR_AXIS":"6917.893","COUNTRY_CODE":"US","SITE":"AFETR","MEAN_ELEMENT_THEORY":"SGP4","CLASSIFICATION_TYPE":"U","REV_AT_EPOCH":"4289","CENTER_NAME":"EARTH","GP_ID":"225924248","MEAN_ANOMALY":"249.5974","BSTAR":"0.00094510000000","DECAY_DATE":null,"ECCENTRICITY":"0.00013440","EPOCH":"2023-02-18T13:13:41.442240","ELEMENT_SET_NO":"999","TLE_LINE1":"1 52699U 22053AV  23049.55117410  .00014784  00000-0  94510-3 0  9991","OBJECT_TYPE":"PAYLOAD","EPHEMERIS_TYPE":"0","PERIOD":"95.438","RA_OF_ASC_NODE":"105.1676","MEAN_MOTION":"15.08835803","PERIAPSIS":"538.828","MEAN_MOTION_DOT":"0.00014784","REF_FRAME":"TEME","TIME_SYSTEM":"UTC","ARG_OF_PERICENTER":"110.5163","MEAN_MOTION_DDOT":"0.0000000000000","OBJECT_NAME":"STARLINK-3987","APOAPSIS":"540.688","INCLINATION":"53.2174","RCS_SIZE":"LARGE","FILE":"3807124"},{"GP_ID":"225957143","MEAN_ANOMALY":"281.1543","BSTAR":"0.00067042000000","EPOCH":"2023-02-18T21:35:47.039136","ECCENTRICITY":"0.00005870","DECAY_DATE":null,"MEAN_ELEMENT_THEORY":"SGP4","REV_AT_EPOCH":"4238","CENTER_NAME":"EARTH","CLASSIFICATION_TYPE":"U","SEMIMAJOR_AXIS":"6917.861","COUNTRY_CODE":"US","SITE":"AFETR","TLE_LINE2":"2 52700  53.2169 113.6153 0000587  78.9515 281.1543 15.08846391 42383","NORAD_CAT_ID":"52700","LAUNCH_DATE":"2022-05-18","OBJECT_ID":"2022-053AW","INCLINATION":"53.2169","RCS_SIZE":"LARGE","FILE":"3808465","REF_FRAME":"TEME","TIME_SYSTEM":"UTC","MEAN_MOTION_DDOT":"0.0000000000000","ARG_OF_PERICENTER":"78.9515","OBJECT_NAME":"STARLINK-4034","APOAPSIS":"540.132","MEAN_MOTION_DOT":"0.00010400","MEAN_MOTION":"15.08846391","PERIAPSIS":"539.320","OBJECT_TYPE":"PAYLOAD","ELEMENT_SET_NO":"999","TLE_LINE1":"1 52700U 22053AW  23049.89984999  .00010400  00000-0  67042-3 0  9996","PERIOD":"95.437","EPHEMERIS_TYPE":"0","RA_OF_ASC_NODE":"113.6153"},{"ECCENTRICITY":"0.00013760","EPOCH":"2023-02-18T12:49:05.916000","DECAY_DATE":null,"GP_ID":"225935023","MEAN_ANOMALY":"271.8287","BSTAR":"0.00190740000000","REV_AT_EPOCH":"4253","CENTER_NAME":"EARTH","CLASSIFICATION_TYPE":"U","MEAN_ELEMENT_THEORY":"SGP4","SEMIMAJOR_AXIS":"6917.825","SITE":"AFETR","COUNTRY_CODE":"US","NORAD_CAT_ID":"52701","TLE_LINE2":"2 52701  53.2143 100.2559 0001376  88.2863 271.8287 15.08858168 42538","LAUNCH_DATE":"2022-05-18","OBJECT_ID":"2022-053AX","FILE":"3807434","INCLINATION":"53.2143","RCS_SIZE":"LARGE","APOAPSIS":"540.642","REF_FRAME":"TEME","TIME_SYSTEM":"UTC","ARG_OF_PERICENTER":"88.2863","MEAN_MOTION_DDOT":"0.0000000000000","OBJECT_NAME":"STARLINK-4003","MEAN_MOTION_DOT":"0.00030214","PERIAPSIS":"538.738","MEAN_MOTION":"15.08858168","PERIOD":"95.436","EPHEMERIS_TYPE":"0","RA_OF_ASC_NODE":"100.2559","OBJECT_TYPE":"PAYLOAD","TLE_LINE1":"1 52701U 22053AX  23049.53409625  .00030214  00000-0  19074-2 0  9992","ELEMENT_SET_NO":"999"},{"REV_AT_EPOCH":"4232","CENTER_NAME":"EARTH","CLASSIFICATION_TYPE":"U","MEAN_ELEMENT_THEORY":"SGP4","EPOCH":"2023-02-18T11:56:48.668064","ECCENTRICITY":"0.00022110","DECAY_DATE":null,"BSTAR":"0.00099153000000","GP_ID":"225935003","MEAN_ANOMALY":"308.6066","OBJECT_ID":"2022-053AY","LAUNCH_DATE":"2022-05-18","TLE_LINE2":"2 52702  53.2155 115.4416 0002211  51.5124 308.6066 15.08816671 42328","NORAD_CAT_ID":"52702","SITE":"AFETR","COUNTRY_CODE":"US","SEMIMAJOR_AXIS":"6917.952","APOAPSIS":"541.346","OBJECT_NAME":"STARLINK-4033","MEAN_MOTION_DDOT":"0.0000000000000","ARG_OF_PERICENTER":"51.5124","TIME_SYSTEM":"UTC","REF_FRAME":"TEME","FILE":"3807432","RCS_SIZE":"LARGE","INCLINATION":"53.2155","RA_OF_ASC_NODE":"115.4416","PERIOD":"95.439","EPHEMERIS_TYPE":"0","OBJECT_TYPE":"PAYLOAD","ELEMENT_SET_NO":"999","TLE_LINE1":"1 52702U 22053AY  23049.49778551  .00015517  00000-0  99153-3 0  9991","MEAN_MOTION_DOT":"0.00015517","PERIAPSIS":"538.287","MEAN_MOTION":"15.08816671"},{"LAUNCH_DATE":"2022-05-18","TLE_LINE2":"2 52703  53.2144 100.3054 0000918 133.1268 226.9801 15.08841771 41682","NORAD_CAT_ID":"52703","OBJECT_ID":"2022-053AZ","SEMIMAJOR_AXIS":"6917.875","COUNTRY_CODE":"US","SITE":"AFETR","MEAN_ELEMENT_THEORY":"SGP4","REV_AT_EPOCH":"4168","CENTER_NAME":"EARTH","CLASSIFICATION_TYPE":"U","BSTAR":"0.00172600000000","GP_ID":"225923754","MEAN_ANOMALY":"226.9801","EPOCH":"2023-02-18T12:33:12.993984","ECCENTRICITY":"0.00009180","DECAY_DATE":null,"OBJECT_TYPE":"PAYLOAD","TLE_LINE1":"1 52703U 22053AZ  23049.52306706  .00027289  00000-0  17260-2 0  9992","ELEMENT_SET_NO":"999","PERIOD":"95.437","EPHEMERIS_TYPE":"0","RA_OF_ASC_NODE":"100.3054","MEAN_MOTION_DOT":"0.00027289","PERIAPSIS":"539.105","MEAN_MOTION":"15.08841771","TIME_SYSTEM":"UTC","REF_FRAME":"TEME","MEAN_MOTION_DDOT":"0.0000000000000","OBJECT_NAME":"STARLINK-4020","ARG_OF_PERICENTER":"133.1268","APOAPSIS":"540.375","INCLINATION":"53.2144","RCS_SIZE":"LARGE","FILE":"3807124"}];
